{"type": "FeatureCollection", "features": [ {"type": "Feature", "properties": {"norad_id": 38726, "name": "FENGYUN 1C DEB", "group": "fengyun-1c-debris", "lat": -30.691072817952243, "lon": 9.997738268328094, "alt_km": 582.6405286048739, "timestamp": "2025-12-07T09:35:10.080549+00:00", "meta": {"OBJECT_NAME": "FENGYUN 1C DEB", "OBJECT_ID": "1999-025ETT", "EPOCH": "2025-12-06T08:08:25.579680", "MEAN_MOTION": 15.01645964, "ECCENTRICITY": 0.00229624, "INCLINATION": 99.1376, "RA_OF_ASC_NODE": 3.2688, "ARG_OF_PERICENTER": 145.8993, "MEAN_ANOMALY": 214.3708, "EPHEMERIS_TYPE": 0, "CLASSIFICATION_TYPE": "U", "NORAD_CAT_ID": 38726, "ELEMENT_SET_NO": 999, "REV_AT_EPOCH": 69759, "BSTAR": 0.011530425, "MEAN_MOTION_DOT": 0.00153647, "MEAN_MOTION_DDOT": 0}, "tle": {"line1": "1 38726U 99025ETT 25340.33918495  .00153647  00000+0  11530-1 0  9993", "line2": "2 38726  99.1376   3.2688 0022962 145.8993 214.3708 15.01645964697592"}}, "geometry": {"type": "Point", "coordinates": [9.997738268328094, -30.691072817952243]}}, {"type": "Feature", "properties": {"norad_id": 38728, "name": "FENGYUN 1C DEB", "group": "fengyun-1c-debris", "lat": 38.30479495738408, "lon": 155.42588852732217, "alt_km": 638.4731447151016, "timestamp": "2025-12-07T09:35:10.080559+00:00", "meta": {"OBJECT_NAME": "FENGYUN 1C DEB", "OBJECT_ID": "1999-025ETV", "EPOCH": "2025-12-06T05:29:30.081696", "MEAN_MOTION": 14.70418681, "ECCENTRICITY": 0.0075523, "INCLINATION": 99.2588, "RA_OF_ASC_NODE": 326.6948, "ARG_OF_PERICENTER": 74.331, "MEAN_ANOMALY": 352.8104, "EPHEMERIS_TYPE": 0, "CLASSIFICATION_TYPE": "U", "NORAD_CAT_ID": 38728, "ELEMENT_SET_NO": 999, "REV_AT_EPOCH": 65515, "BSTAR": 0.0019460135, "MEAN_MOTION_DOT": 0.00012268, "MEAN_MOTION_DDOT": 0}, "tle": {"line1": "1 38728U 99025ETV 25340.22882039  .00012268  00000+0  19460-2 0  9991", "line2": "2 38728  99.2588 326.6948 0075523  74.3310 352.8104 14.70418681655154"}}, "geometry": {"type": "Point", "coordinates": [155.42588852732217, 38.30479495738408]}}, {"type": "Feature", "properties": {"norad_id": 38789, "name": "FENGYUN 1C DEB", "group": "fengyun-1c-debris", "lat": -19.565405131878336, "lon": 44.06116582951219, "alt_km": 882.0524413487037, "timestamp": "2025-12-07T09:35:10.080569+00:00", "meta": {"OBJECT_NAME": "FENGYUN 1C DEB", "OBJECT_ID": "1999-025EUD", "EPOCH": "2025-12-06T22:47:22.321824", "MEAN_MOTION": 14.45753733, "ECCENTRICITY": 0.02081012, "INCLINATION": 98.8563, "RA_OF_ASC_NODE": 226.768, "ARG_OF_PERICENTER": 42.5488, "MEAN_ANOMALY": 336.2206, "EPHEMERIS_TYPE": 0, "CLASSIFICATION_TYPE": "U", "NORAD_CAT_ID": 38789, "ELEMENT_SET_NO": 999, "REV_AT_EPOCH": 61762, "BSTAR": 0.0010174555, "MEAN_MOTION_DOT": 4.662e-05, "MEAN_MOTION_DDOT": 0}, "tle": {"line1": "1 38789U 99025EUD 25340.94956391  .00004662  00000+0  10175-2 0  9993", "line2": "2 38789  98.8563 226.7680 0208101  42.5488 336.2206 14.45753733617626"}}, "geometry": {"type": "Point", "coordinates": [44.06116582951219, -19.565405131878336]}}, {"type": "Feature", "properties": {"norad_id": 38795, "name": "FENGYUN 1C DEB", "group": "fengyun-1c-debris", "lat": 36.984352730388196, "lon": -1.4634047872555513, "alt_km": 1368.5268836011555, "timestamp": "2025-12-07T09:35:10.080580+00:00", "meta": {"OBJECT_NAME": "FENGYUN 1C DEB", "OBJECT_ID": "1999-025EUK", "EPOCH": "2025-12-02T08:24:42.599520", "MEAN_MOTION": 13.29800561, "ECCENTRICITY": 0.05040855, "INCLINATION": 98.7022, "RA_OF_ASC_NODE": 0.8783, "ARG_OF_PERICENTER": 281.6333, "MEAN_ANOMALY": 72.8653, "EPHEMERIS_TYPE": 0, "CLASSIFICATION_TYPE": "U", "NORAD_CAT_ID": 38795, "ELEMENT_SET_NO": 999, "REV_AT_EPOCH": 78374, "BSTAR": 0.003965023, "MEAN_MOTION_DOT": 3.692e-05, "MEAN_MOTION_DDOT": 0}, "tle": {"line1": "1 38795U 99025EUK 25336.35049305  .00003692  00000+0  39650-2 0  9999", "line2": "2 38795  98.7022   0.8783 0504085 281.6333  72.8653 13.29800561783741"}}, "geometry": {"type": "Point", "coordinates": [-1.4634047872555513, 36.984352730388196]}}, {"type": "Feature", "properties": {"norad_id": 38797, "name": "FENGYUN 1C DEB", "group": "fengyun-1c-debris", "lat": -38.3258235203529, "lon": -118.00962555726326, "alt_km": 1019.3590080355925, "timestamp": "2025-12-07T09:35:10.080594+00:00", "meta": {"OBJECT_NAME": "FENGYUN 1C DEB", "OBJECT_ID": "1999-025EUM", "EPOCH": "2025-12-04T11:14:12.365088", "MEAN_MOTION": 13.61604449, "ECCENTRICITY": 0.0245033, "INCLINATION": 99.4845, "RA_OF_ASC_NODE": 231.5475, "ARG_OF_PERICENTER": 242.5274, "MEAN_ANOMALY": 115.0763, "EPHEMERIS_TYPE": 0, "CLASSIFICATION_TYPE": "U", "NORAD_CAT_ID": 38797, "ELEMENT_SET_NO": 999, "REV_AT_EPOCH": 59170, "BSTAR": 0.00058643, "MEAN_MOTION_DOT": 5.04e-06, "MEAN_MOTION_DDOT": 0}, "tle": {"line1": "1 38797U 99025EUM 25338.46819867  .00000504  00000+0  58643-3 0  9996", "line2": "2 38797  99.4845 231.5475 0245033 242.5274 115.0763 13.61604449591708"}}, "geometry": {"type": "Point", "coordinates": [-118.00962555726326, -38.3258235203529]}}, {"type": "Feature", "properties": {"norad_id": 38799, "name": "FENGYUN 1C DEB", "group": "fengyun-1c-debris", "lat": 78.76586028088325, "lon": -75.00452181257623, "alt_km": 722.1433307514981, "timestamp": "2025-12-07T09:35:10.080604+00:00", "meta": {"OBJECT_NAME": "FENGYUN 1C DEB", "OBJECT_ID": "1999-025EUP", "EPOCH": "2025-12-06T11:35:54.892608", "MEAN_MOTION": 14.48675369, "ECCENTRICITY": 0.01641821, "INCLINATION": 98.4066, "RA_OF_ASC_NODE": 55.9645, "ARG_OF_PERICENTER": 9.5257, "MEAN_ANOMALY": 350.8985, "EPHEMERIS_TYPE": 0, "CLASSIFICATION_TYPE": "U", "NORAD_CAT_ID": 38799, "ELEMENT_SET_NO": 999, "REV_AT_EPOCH": 63948, "BSTAR": 0.0015322764, "MEAN_MOTION_DOT": 6.802e-05, "MEAN_MOTION_DDOT": 0}, "tle": {"line1": "1 38799U 99025EUP 25340.48327422  .00006802  00000+0  15323-2 0  9998", "line2": "2 38799  98.4066  55.9645 0164182   9.5257 350.8985 14.48675369639486"}}, "geometry": {"type": "Point", "coordinates": [-75.00452181257623, 78.76586028088325]}}, {"type": "Feature", "properties": {"norad_id": 38801, "name": "FENGYUN 1C DEB", "group": "fengyun-1c-debris", "lat": 64.00228691051049, "lon": -130.16158439776189, "alt_km": 867.7848151086573, "timestamp": "2025-12-07T09:35:10.080614+00:00", "meta": {"OBJECT_NAME": "FENGYUN 1C DEB", "OBJECT_ID": "1999-025EUR", "EPOCH": "2025-12-05T09:56:30.864768", "MEAN_MOTION": 14.24763514, "ECCENTRICITY": 0.03475643, "INCLINATION": 98.3755, "RA_OF_ASC_NODE": 30.3568, "ARG_OF_PERICENTER": 13.5329, "MEAN_ANOMALY": 0.7956, "EPHEMERIS_TYPE": 0, "CLASSIFICATION_TYPE": "U", "NORAD_CAT_ID": 38801, "ELEMENT_SET_NO": 999, "REV_AT_EPOCH": 64256, "BSTAR": 0.00093460253, "MEAN_MOTION_DOT": 4.053e-05, "MEAN_MOTION_DDOT": 0}, "tle": {"line1": "1 38801U 99025EUR 25339.41424612  .00004053  00000+0  93460-3 0  9997", "line2": "2 38801  98.3755  30.3568 0347564  13.5329   0.7956 14.24763514642563"}}, "geometry": {"type": "Point", "coordinates": [-130.16158439776189, 64.00228691051049]}}, {"type": "Feature", "properties": {"norad_id": 38803, "name": "FENGYUN 1C DEB", "group": "fengyun-1c-debris", "lat": 1.0482516246319051, "lon": -15.132038347803777, "alt_km": 786.1781291851439, "timestamp": "2025-12-07T09:35:10.080624+00:00", "meta": {"OBJECT_NAME": "FENGYUN 1C DEB", "OBJECT_ID": "1999-025EUT", "EPOCH": "2025-12-02T23:18:31.375872", "MEAN_MOTION": 14.23518858, "ECCENTRICITY": 0.00644877, "INCLINATION": 99.1384, "RA_OF_ASC_NODE": 340.4394, "ARG_OF_PERICENTER": 63.9975, "MEAN_ANOMALY": 296.7825, "EPHEMERIS_TYPE": 0, "CLASSIFICATION_TYPE": "U", "NORAD_CAT_ID": 38803, "ELEMENT_SET_NO": 999, "REV_AT_EPOCH": 60073, "BSTAR": 0.0027014694, "MEAN_MOTION_DOT": 6.236e-05, "MEAN_MOTION_DDOT": 0}, "tle": {"line1": "1 38803U 99025EUT 25336.97119648  .00006236  00000+0  27015-2 0  9994", "line2": "2 38803  99.1384 340.4394 0064487  63.9975 296.7825 14.23518858600733"}}, "geometry": {"type": "Point", "coordinates": [-15.132038347803777, 1.0482516246319051]}}, {"type": "Feature", "properties": {"norad_id": 38809, "name": "FENGYUN 1C DEB", "group": "fengyun-1c-debris", "lat": 60.54378630024064, "lon": -23.785357929678117, "alt_km": 789.678202349839, "timestamp": "2025-12-07T09:35:10.080634+00:00", "meta": {"OBJECT_NAME": "FENGYUN 1C DEB", "OBJECT_ID": "1999-025EUZ", "EPOCH": "2025-12-05T06:30:23.152320", "MEAN_MOTION": 14.18136991, "ECCENTRICITY": 0.02231713, "INCLINATION": 98.5894, "RA_OF_ASC_NODE": 349.676, "ARG_OF_PERICENTER": 349.5929, "MEAN_ANOMALY": 10.0666, "EPHEMERIS_TYPE": 0, "CLASSIFICATION_TYPE": "U", "NORAD_CAT_ID": 38809, "ELEMENT_SET_NO": 999, "REV_AT_EPOCH": 69100, "BSTAR": 0.0011831883, "MEAN_MOTION_DOT": 3.063e-05, "MEAN_MOTION_DDOT": 0}, "tle": {"line1": "1 38809U 99025EUZ 25339.27110130  .00003063  00000+0  11832-2 0  9998", "line2": "2 38809  98.5894 349.6760 0223171 349.5929  10.0666 14.18136991691003"}}, "geometry": {"type": "Point", "coordinates": [-23.785357929678117, 60.54378630024064]}}, {"type": "Feature", "properties": {"norad_id": 38813, "name": "FENGYUN 1C DEB", "group": "fengyun-1c-debris", "lat": 55.40121977065328, "lon": 172.0791355433645, "alt_km": 814.9315251327116, "timestamp": "2025-12-07T09:35:10.080644+00:00", "meta": {"OBJECT_NAME": "FENGYUN 1C DEB", "OBJECT_ID": "1999-025EVD", "EPOCH": "2025-12-06T17:47:21.073632", "MEAN_MOTION": 14.20144309, "ECCENTRICITY": 0.00063891, "INCLINATION": 99.3463, "RA_OF_ASC_NODE": 337.5719, "ARG_OF_PERICENTER": 129.1839, "MEAN_ANOMALY": 230.9904, "EPHEMERIS_TYPE": 0, "CLASSIFICATION_TYPE": "U", "NORAD_CAT_ID": 38813, "ELEMENT_SET_NO": 999, "REV_AT_EPOCH": 48165, "BSTAR": 0.00090873876, "MEAN_MOTION_DOT": 1.89e-05, "MEAN_MOTION_DDOT": 0}, "tle": {"line1": "1 38813U 99025EVD 25340.74121613  .00001890  00000+0  90874-3 0  9995", "line2": "2 38813  99.3463 337.5719 0006389 129.1839 230.9904 14.20144309481652"}}, "geometry": {"type": "Point", "coordinates": [172.0791355433645, 55.40121977065328]}}]}